[{"OBJECT_NAME":"ION SCV-011","OBJECT_ID":"2023-084AB","EPOCH":"2026-03-09T22:35:16.566144","MEAN_MOTION":15.27752464,"ECCENTRICITY":0.00079323,"INCLINATION":98.1356,"RA_OF_ASC_NODE":247.1056,"ARG_OF_PERICENTER":30.3898,"MEAN_ANOMALY":329.7798,"EPHEMERIS_TYPE":0,"CLASSIFICATION_TYPE":"U","NORAD_CAT_ID":56957,"ELEMENT_SET_NO":999,"REV_AT_EPOCH":15065,"BSTAR":0.0002590454,"MEAN_MOTION_DOT":6.943e-5,"MEAN_MOTION_DDOT":0},{"OBJECT_NAME":"STARLINK-33685","OBJECT_ID":"2025-070F","EPOCH":"2026-03-09T13:14:17.112480","MEAN_MOTION":15.27597367,"ECCENTRICITY":0.0001141,"INCLINATION":42.9934,"RA_OF_ASC_NODE":260.7201,"ARG_OF_PERICENTER":246.9043,"MEAN_ANOMALY":113.1688,"EPHEMERIS_TYPE":0,"CLASSIFICATION_TYPE":"U","NORAD_CAT_ID":63465,"ELEMENT_SET_NO":999,"REV_AT_EPOCH":5295,"BSTAR":0.001387407,"MEAN_MOTION_DOT":0.00038134,"MEAN_MOTION_DDOT":0}]
